[{"OBJECT_NAME":"YUNHAI-2 02F","OBJECT_ID":"2024-052F","EPOCH":"2026-03-09T21:57:33.541056","MEAN_MOTION":14.27880758,"ECCENTRICITY":0.00054431,"INCLINATION":50.0098,"RA_OF_ASC_NODE":263.5952,"ARG_OF_PERICENTER":191.0997,"MEAN_ANOMALY":168.9799,"EPHEMERIS_TYPE":0,"CLASSIFICATION_TYPE":"U","NORAD_CAT_ID":59285,"ELEMENT_SET_NO":999,"REV_AT_EPOCH":10497,"BSTAR":0.0001263727,"MEAN_MOTION_DOT":1.54e-6,"MEAN_MOTION_DDOT":0},{"OBJECT_NAME":"FENGYUN 1C DEB","OBJECT_ID":"1999-025ASS","EPOCH":"2026-03-09T12:39:01.349280","MEAN_MOTION":14.0401564,"ECCENTRICITY":0.01229965,"INCLINATION":98.7983,"RA_OF_ASC_NODE":90.9284,"ARG_OF_PERICENTER":326.821,"MEAN_ANOMALY":186.9956,"EPHEMERIS_TYPE":0,"CLASSIFICATION_TYPE":"U","NORAD_CAT_ID":30732,"ELEMENT_SET_NO":999,"REV_AT_EPOCH":97409,"BSTAR":0.00045860482,"MEAN_MOTION_DOT":7.32e-6,"MEAN_MOTION_DDOT":0}]
